NORAD_CAT_ID,OBJECT_NAME,OBJECT_TYPE,EPOCH,MEAN_MOTION,ECCENTRICITY,INCLINATION,RA_OF_ASC_NODE,ARG_OF_PERICENTER,MEAN_ANOMALY,BSTAR,MEAN_MOTION_DOT,MEAN_MOTION_DDOT,TLE_LINE0,TLE_LINE1,TLE_LINE2,SEMIMAJOR_AXIS,PERIOD,APOGEE,PERIGEE,DECAYED
53915.0,STARLINK-5017,PAYLOAD,2024-02-24 06:50:51,15.08838536,0.0001642,53.218,55.9803,103.919,256.1985,1.408e-05,-6.4e-07,0.0,0 STARLINK-5017,1 53915U 22119AF  24055.28531810 -.00000064  00000-0  14080-4 0  9990,2 53915  53.2180  55.9803 0001642 103.9190 256.1985 15.08838536 79021,6917.885,95.438,540.886,538.614,0.0
53915.0,STARLINK-5017,PAYLOAD,2024-02-24 16:23:10,15.0883865,0.0001643,53.2182,54.1968,103.3714,256.7461,1.0393e-05,-1.23e-06,0.0,0 STARLINK-5017,1 53915U 22119AF  24055.68275868 -.00000123  00000-0  10393-4 0  9991,2 53915  53.2182  54.1968 0001643 103.3714 256.7461 15.08838650 79508,6917.885,95.438,540.886,538.613,0.0
53915.0,STARLINK-5017,PAYLOAD,2024-02-25 06:41:38,15.08847101,0.000147,53.2175,51.5233,97.0369,263.079,5.5807e-05,6e-06,0.0,0 STARLINK-5017,1 53915U 22119AF  24056.27891296  .00000600  00000-0  55807-4 0  9994,2 53915  53.2175  51.5233 0001470  97.0369 263.0790 15.08847101 79179,6917.859,95.437,540.741,538.707,0.0
53915.0,STARLINK-5017,PAYLOAD,2024-02-25 16:13:57,15.08841094,0.000147,53.2173,49.7394,97.8456,262.2703,0.0001414,1.963e-05,0.0,0 STARLINK-5017,1 53915U 22119AF  24056.67635454  .00001963  00000-0  14140-3 0  9997,2 53915  53.2173  49.7394 0001470  97.8456 262.2703 15.08841094 79652,6917.877,95.437,540.759,538.725,0.0
53915.0,STARLINK-5017,PAYLOAD,2024-02-26 03:21:39,15.08837465,0.0001529,53.2179,47.6585,99.09,261.0265,8.9714e-05,1.14e-05,0.0,0 STARLINK-5017,1 53915U 22119AF  24057.14003871  .00001140  00000-0  89714-4 0  9999,2 53915  53.2179  47.6585 0001529  99.0900 261.0265 15.08837465 79309,6917.888,95.438,540.811,538.695,0.0
53915.0,STARLINK-5017,PAYLOAD,2024-02-26 04:57:02,15.08837898,0.0001529,53.2179,47.3611,99.0291,261.0874,9.1984e-05,1.176e-05,0.0,0 STARLINK-5017,1 53915U 22119AF  24057.20627848  .00001176  00000-0  91984-4 0  9993,2 53915  53.2179  47.3611 0001529  99.0291 261.0874 15.08837898 79732,6917.887,95.438,540.81,538.694,0.0
53915.0,STARLINK-5017,PAYLOAD,2024-02-26 22:26:17,15.08839781,0.0001613,53.2186,44.0916,104.1059,256.0112,2.0375e-05,3.6e-07,0.0,0 STARLINK-5017,1 53915U 22119AF  24057.93492050  .00000036  00000-0  20375-4 0  9998,2 53915  53.2186  44.0916 0001613 104.1059 256.0112 15.08839781 79840,6917.881,95.438,540.862,538.63,0.0
53915.0,STARLINK-5017,PAYLOAD,2024-02-27 07:58:35,15.08844355,0.0001712,53.2186,42.3056,102.7471,257.3712,6.8428e-06,-1.79e-06,0.0,0 STARLINK-5017,1 53915U 22119AF  24058.33235815 -.00000179  00000-0  68428-5 0  9998,2 53915  53.2186  42.3056 0001712 102.7471 257.3712 15.08844355 79481,6917.867,95.437,540.916,538.548,0.0
53915.0,STARLINK-5017,PAYLOAD,2024-02-27 22:17:04,15.08836171,0.0001648,53.2188,39.6304,90.1642,269.9539,2.764e-05,1.52e-06,0.0,0 STARLINK-5017,1 53915U 22119AF  24058.92852287  .00000152  00000-0  27640-4 0  9991,2 53915  53.2188  39.6304 0001648  90.1642 269.9539 15.08836171 79995,6917.892,95.438,540.897,538.617,0.0
53915.0,STARLINK-5017,PAYLOAD,2024-02-28 04:38:36,15.08837373,0.0001416,53.2169,38.4403,90.3153,269.8002,3.8798e-05,3.3e-06,0.0,0 STARLINK-5017,1 53915U 22119AF  24059.19348210  .00000330  00000-0  38798-4 0  9991,2 53915  53.2169  38.4403 0001416  90.3153 269.8002 15.08837373 79611,6917.888,95.438,540.733,538.774,0.0
53915.0,STARLINK-5017,PAYLOAD,2024-02-28 06:13:59,15.08838101,0.0001492,53.2174,38.1433,90.7479,269.3684,6.5342e-05,7.52e-06,0.0,0 STARLINK-5017,1 53915U 22119AF  24059.25972102  .00000752  00000-0  65342-4 0  9994,2 53915  53.2174  38.1433 0001492  90.7479 269.3684 15.08838101 80046,6917.886,95.438,540.783,538.719,0.0
53915.0,STARLINK-5017,PAYLOAD,2024-02-28 22:07:51,15.08833997,0.0001355,53.2166,35.167,97.9764,262.1382,1.0203e-05,-1.26e-06,0.0,0 STARLINK-5017,1 53915U 22119AF  24059.92212676 -.00000126  00000-0  10203-4 0  9993,2 53915  53.2166  35.1670 0001355  97.9764 262.1382 15.08833997 80146,6917.899,95.438,540.701,538.826,0.0
53915.0,STARLINK-5017,PAYLOAD,2024-02-29 07:40:10,15.0884206,0.0001534,53.2181,33.3821,91.4742,268.6426,5.3813e-05,5.69e-06,0.0,0 STARLINK-5017,1 53915U 22119AF  24060.31956123  .00000569  00000-0  53813-4 0  9994,2 53915  53.2181  33.3821 0001534  91.4742 268.6426 15.08842060 79784,6917.874,95.437,540.8,538.678,0.0
53915.0,STARLINK-5017,PAYLOAD,2024-02-29 21:58:38,15.08829845,0.0001209,53.2177,30.7062,93.9868,266.1262,0.0001275,1.741e-05,0.0,0 STARLINK-5017,1 53915U 22119AF  24060.91572574  .00001741  00000-0  12750-3 0  9991,2 53915  53.2177  30.7062 0001209  93.9868 266.1262 15.08829845 80297,6917.911,95.438,540.613,538.94,0.0
53915.0,STARLINK-5017,PAYLOAD,2024-03-01 07:30:56,15.08849011,0.0001503,53.2176,28.9215,95.0087,265.1077,5.609e-05,6.05e-06,0.0,0 STARLINK-5017,1 53915U 22119AF  24061.31315665  .00000605  00000-0  56090-4 0  9996,2 53915  53.2176  28.9215 0001503  95.0087 265.1077 15.08849011 80355,6917.853,95.437,540.758,538.678,0.0
53915.0,STARLINK-5017,PAYLOAD,2024-03-02 02:35:34,15.08835723,0.0001453,53.2169,25.3519,99.2576,260.8581,8.8428e-05,1.12e-05,0.0,0 STARLINK-5017,1 53915U 22119AF  24062.10804330  .00001120  00000-0  88428-4 0  9999,2 53915  53.2169  25.3519 0001453  99.2576 260.8581 15.08835723 80052,6917.893,95.438,540.764,538.753,0.0
53915.0,STARLINK-5017,PAYLOAD,2024-03-03 04:01:44,15.08839403,0.000118,53.2175,20.5938,87.2556,272.8572,7.4091e-05,8.91e-06,0.0,0 STARLINK-5017,1 53915U 22119AF  24063.16788194  .00000891  00000-0  74091-4 0  9990,2 53915  53.2175  20.5938 0001180  87.2556 272.8572 15.08839403 80213,6917.882,95.438,540.564,538.931,0.0
53915.0,STARLINK-5017,PAYLOAD,2024-03-04 03:52:31,15.08851543,0.0001454,53.2188,16.1384,106.5567,253.5585,0.00016036,2.266e-05,0.0,0 STARLINK-5017,1 53915U 22119AF  24064.16147190  .00002266  00000-0  16036-3 0  9998,2 53915  53.2188  16.1384 0001454 106.5567 253.5585 15.08851543 80369,6917.845,95.437,540.716,538.704,0.0
53915.0,STARLINK-5017,PAYLOAD,2024-03-04 13:24:50,15.08844681,0.0001445,53.219,14.3519,80.6895,279.426,9.3286e-05,1.197e-05,0.0,0 STARLINK-5017,1 53915U 22119AF  24064.55891680  .00001197  00000-0  93286-4 0  9996,2 53915  53.2190  14.3519 0001445  80.6895 279.4260 15.08844681 80427,6917.866,95.437,540.731,538.731,0.0
53915.0,STARLINK-5017,PAYLOAD,2024-03-05 03:43:20,15.0882737,0.0001536,53.2189,11.6762,80.0034,280.1131,-6.0334e-05,-1.248e-05,0.0,0 STARLINK-5017,1 53915U 22119AF  24065.15509625 -.00001248  00000-0 -60334-4 0  9995,2 53915  53.2189  11.6762 0001536  80.0034 280.1131 15.08827370 80517,6917.919,95.438,540.847,538.721,0.0
53915.0,STARLINK-5017,PAYLOAD,2024-03-05 05:18:43,15.08830853,0.0001644,53.2198,11.3803,89.5781,270.54,-5.0311e-05,-1.088e-05,0.0,0 STARLINK-5017,1 53915U 22119AF  24065.22133420 -.00001088  00000-0 -50311-4 0  9995,2 53915  53.2198  11.3803 0001644  89.5781 270.5400 15.08830853 80942,6917.908,95.438,540.911,538.636,0.0
53915.0,STARLINK-5017,PAYLOAD,2024-03-06 03:34:06,15.08845168,0.0001505,53.2186,7.216,103.1953,256.9207,-1.9696e-05,-6.01e-06,0.0,0 STARLINK-5017,1 53915U 22119AF  24066.14868870 -.00000601  00000-0 -19696-4 0  9992,2 53915  53.2186   7.2160 0001505 103.1953 256.9207 15.08845168 80666,6917.865,95.437,540.771,538.688,0.0
53915.0,STARLINK-5017,PAYLOAD,2024-03-06 05:09:29,15.08847901,0.000155,53.2191,6.9155,94.6384,265.4785,1.0785e-05,-1.16e-06,0.0,0 STARLINK-5017,1 53915U 22119AF  24066.21492619 -.00000116  00000-0  10785-4 0  9994,2 53915  53.2191   6.9155 0001550  94.6384 265.4785 15.08847901 81095,6917.856,95.437,540.794,538.649,0.0
53915.0,STARLINK-5017,PAYLOAD,2024-03-07 03:24:54,15.08838433,0.0001533,53.2188,2.7556,89.167,270.9498,0.00012014,1.624e-05,0.0,0 STARLINK-5017,1 53915U 22119AF  24067.14229229  .00001624  00000-0  12014-3 0  9992,2 53915  53.2188   2.7556 0001533  89.1670 270.9498 15.08838433 80819,6917.885,95.438,540.811,538.69,0.0
53915.0,STARLINK-5017,PAYLOAD,2024-03-07 12:57:12,15.08849454,0.0001383,53.2178,0.9693,81.4721,278.6427,0.0001843,2.647e-05,0.0,0 STARLINK-5017,1 53915U 22119AF  24067.53972316  .00002647  00000-0  18430-3 0  9991,2 53915  53.2178   0.9693 0001383  81.4721 278.6427 15.08849454 81290,6917.851,95.437,540.673,538.76,0.0
53915.0,STARLINK-5017,PAYLOAD,2024-03-08 12:47:59,15.08844977,0.0001803,53.2206,356.5053,102.8706,257.2487,8.4987e-05,1.065e-05,0.0,0 STARLINK-5017,1 53915U 22119AF  24068.53332775  .00001065  00000-0  84987-4 0  9995,2 53915  53.2206 356.5053 0001803 102.8706 257.2487 15.08844977 81441,6917.865,95.437,540.977,538.483,0.0
53915.0,STARLINK-5017,PAYLOAD,2024-03-08 19:09:33,15.08831795,0.0001202,53.2195,355.319,96.1237,263.9892,-0.00013053,-2.364e-05,0.0,0 STARLINK-5017,1 53915U 22119AF  24068.79830254 -.00002364  00000-0 -13053-3 0  9998,2 53915  53.2195 355.3190 0001202  96.1237 263.9892 15.08831795 81060,6917.905,95.438,540.602,538.939,0.0
53915.0,STARLINK-5017,PAYLOAD,2024-03-09 04:41:51,15.08846788,0.0001373,53.2192,353.5349,92.8619,267.2531,6.514e-06,-1.84e-06,0.0,0 STARLINK-5017,1 53915U 22119AF  24069.19572954 -.00000184  00000-0  65140-5 0  9996,2 53915  53.2192 353.5349 0001373  92.8619 267.2531 15.08846788 81121,6917.86,95.437,540.674,538.775,0.0
53915.0,STARLINK-5017,PAYLOAD,2024-03-10 04:32:37,15.08846152,0.0001238,53.2189,349.0739,98.406,261.7073,5.7343e-05,6.25e-06,0.0,0 STARLINK-5017,1 53915U 22119AF  24070.18932570  .00000625  00000-0  57343-4 0  9995,2 53915  53.2189 349.0739 0001238  98.4060 261.7073 15.08846152 81699,6917.862,95.437,540.583,538.87,0.0
53915.0,STARLINK-5017,PAYLOAD,2024-03-10 22:01:53,15.08825465,0.0001002,53.218,345.8028,94.2547,265.8559,0.00014449,2.012e-05,0.0,0 STARLINK-5017,1 53915U 22119AF  24070.91797650  .00002012  00000-0  14449-3 0  9995,2 53915  53.2180 345.8028 0001002  94.2547 265.8559 15.08825465 81809,6917.925,95.438,540.483,539.097,0.0
